IRIDIUM 171             
1 43929U 19002H   23322.28635063  .00000302  00000+0  10087-3 0  9997
2 43929  86.4014  27.4192 0002318  93.5259 266.6202 14.34214957253952
IRIDIUM 170             
1 43930U 19002J   23322.13269255  .00000965  00000+0  14909-3 0  9991
2 43930  86.6133  27.3355 0002411  97.8123 262.3368 14.72263139260658
IRIDIUM 167             
1 43931U 19002K   23322.41952709  .00000255  00000+0  84050-4 0  9993
2 43931  86.4006  27.1758 0002323  95.8151 264.3309 14.34217706253973
IRIDIUM 181             
1 56726U 23068S   23322.55293469  .00000469  00000+0  13266-3 0  9999
2 56726  86.8634  70.5809 0003244  98.2769 261.8801 14.43578985 26600
IRIDIUM 177             
1 56727U 23068T   23322.29410843  .00001674  00000+0  21686-3 0  9992
2 56727  86.1995  55.9468 0002138  92.0138 268.1328 14.80223791 27030
IRIDIUM 174             
1 56728U 23068U   23322.55907631  .00001656  00000+0  21442-3 0  9998
2 56728  86.2003  55.9076 0002006  98.2003 261.9445 14.80229102 27077
IRIDIUM 178             
1 56729U 23068V   23321.94532890  .00001612  00000+0  20874-3 0  9992
2 56729  86.5793  63.6030 0002129  90.3673 269.7793 14.80228916 26988
IRIDIUM 179             
1 56730U 23068W   23322.54829566  .00001635  00000+0  21181-3 0  9997
2 56730  86.6802  64.8141 0001936  99.1993 260.9447 14.80233816 27070
